{"type":"FeatureCollection","crs":{"type":"name","properties":{"name":"EPSG:4326"}},"features":[{"type":"Feature","id":0,"geometry":{"type":"Polygon","coordinates":[[[14.347358200000031,40.806081300000017],[14.348206100000027,40.806461100000035],[14.34819494233858,40.806479139452108],[14.347345969474475,40.806095884101069],[14.347358200000031,40.806081300000017]]]},"properties":{"FID":0,"osm_id":0,"amenity":"V. 1-9","operator":"Cardo IV","historic":" ","name":" ","tourism":" ","building":" ","man_made":" ","addr_house":" ","name_en":" ","heritage_o":" ","wikipedia":" ","ref_whc":" ","name_fr":" ","whc_inscri":" ","name_it":" ","heritage":" ","whc_criter":" ","name_es":" ","wikidata":" ","tourist_bu":" ","parking":" ","addr_city":" ","addr_stree":" "}},{"type":"Feature","id":1,"geometry":{"type":"Polygon","coordinates":[[[14.348206100000027,40.806461100000035],[14.348465799999985,40.806144100000097],[14.348491700000011,40.806153100000131],[14.348221534854474,40.806469983018417],[14.348206100000027,40.806461100000035]]]},"properties":{"FID":1,"osm_id":0,"amenity":"V.10-21","operator":"Decumanus Maximus","historic":" ","name":" ","tourism":" ","building":" ","man_made":" ","addr_house":" ","name_en":" ","heritage_o":" ","wikipedia":" ","ref_whc":" ","name_fr":" ","whc_inscri":" ","name_it":" ","heritage":" ","whc_criter":" ","name_es":" ","wikidata":" ","tourist_bu":" ","parking":" ","addr_city":" ","addr_stree":" "}},{"type":"Feature","id":2,"geometry":{"type":"Polygon","coordinates":[[[14.346340099999964,40.805677900000035],[14.346367100000066,40.805655599999966],[14.347289884826068,40.806070703611738],[14.347269200000142,40.806093700000019],[14.346340099999964,40.805677900000035]]]},"properties":{"FID":2,"osm_id":0,"amenity":"III.11-19","operator":"Cardo IV","historic":" ","name":" ","tourism":" ","building":" ","man_made":" ","addr_house":" ","name_en":" ","heritage_o":" ","wikipedia":" ","ref_whc":" ","name_fr":" ","whc_inscri":" ","name_it":" ","heritage":" ","whc_criter":" ","name_es":" ","wikidata":" ","tourist_bu":" ","parking":" ","addr_city":" ","addr_stree":" "}},{"type":"Feature","id":3,"geometry":{"type":"Polygon","coordinates":[[[14.347307999999941,40.806049600000108],[14.347591599999987,40.805734799999982],[14.347617960625485,40.805750714544502],[14.347335808618993,40.806060744104229],[14.347307999999941,40.806049600000108]]]},"properties":{"FID":3,"osm_id":0,"amenity":" IV.10-15","operator":"Decumanus Inferiore","historic":" ","name":" ","tourism":" ","building":" ","man_made":" ","addr_house":" ","name_en":" ","heritage_o":" ","wikipedia":" ","ref_whc":" ","name_fr":" ","whc_inscri":" ","name_it":" ","heritage":" ","whc_criter":" ","name_es":" ","wikidata":" ","tourist_bu":" ","parking":" ","addr_city":" ","addr_stree":" "}},{"type":"Feature","id":4,"geometry":{"type":"Polygon","coordinates":[[[14.347358200000031,40.806081300000017],[14.347327138114679,40.80607027128309],[14.347628627295705,40.805738993971886],[14.347642800000131,40.805751200000088],[14.347358200000031,40.806081300000017]]]},"properties":{"FID":4,"osm_id":0,"amenity":"V. 34-35","operator":"Decumanus Inferiore","historic":" ","name":" ","tourism":" ","building":" ","man_made":" ","addr_house":" ","name_en":" ","heritage_o":" ","wikipedia":" ","ref_whc":" ","name_fr":" ","whc_inscri":" ","name_it":" ","heritage":" ","whc_criter":" ","name_es":" ","wikidata":" ","tourist_bu":" ","parking":" ","addr_city":" ","addr_stree":" "}},{"type":"Feature","id":5,"geometry":{"type":"Polygon","coordinates":[[[14.346547100000066,40.80572490000003],[14.34655790000005,40.805710700000134],[14.347307999999941,40.806049600000108],[14.347289884826068,40.806070703611738],[14.346547100000066,40.80572490000003]]]},"properties":{"FID":5,"osm_id":0,"amenity":"IV.1-9","operator":"Cardo IV","historic":" ","name":" ","tourism":" ","building":" ","man_made":" ","addr_house":" ","name_en":" ","heritage_o":" ","wikipedia":" ","ref_whc":" ","name_fr":" ","whc_inscri":" ","name_it":" ","heritage":" ","whc_criter":" ","name_es":" ","wikidata":" ","tourist_bu":" ","parking":" ","addr_city":" ","addr_stree":" "}}]}